{
    "type": "FeatureCollection",
    "features": [
        {
            "type": "Feature",
            "geometry": {
                "type": "LineString",
                "coordinates": [
                    [
                        4.47811,
                        52.194252
                    ],
                    [
                        4.478277,
                        52.194273
                    ],
                    [
                        4.47844,
                        52.193688
                    ],
                    [
                        4.477486,
                        52.19363
                    ],
                    [
                        4.476781,
                        52.193861
                    ],
                    [
                        4.476597,
                        52.193805
                    ],
                    [
                        4.476161,
                        52.193382
                    ],
                    [
                        4.475644,
                        52.193009
                    ],
                    [
                        4.475579,
                        52.192908
                    ],
                    [
                        4.475743,
                        52.192932
                    ],
                    [
                        4.476072,
                        52.192867
                    ],
                    [
                        4.475643,
                        52.192195
                    ],
                    [
                        4.475357,
                        52.191716
                    ],
                    [
                        4.474884,
                        52.191825
                    ],
                    [
                        4.47444,
                        52.19177
                    ],
                    [
                        4.47391,
                        52.1919
                    ],
                    [
                        4.47378,
                        52.19168
                    ],
                    [
                        4.47363,
                        52.19172
                    ],
                    [
                        4.47358,
                        52.1916
                    ],
                    [
                        4.47384,
                        52.19156
                    ],
                    [
                        4.47377,
                        52.1914
                    ],
                    [
                        4.4738,
                        52.19129
                    ],
                    [
                        4.4733,
                        52.19051
                    ],
                    [
                        4.47324,
                        52.19041
                    ],
                    [
                        4.47133,
                        52.1875
                    ],
                    [
                        4.47135,
                        52.1869
                    ],
                    [
                        4.47115,
                        52.18676
                    ],
                    [
                        4.471259,
                        52.186079
                    ],
                    [
                        4.470395,
                        52.186
                    ],
                    [
                        4.470408,
                        52.185369
                    ],
                    [
                        4.47044,
                        52.18453
                    ],
                    [
                        4.47026,
                        52.18447
                    ],
                    [
                        4.470363,
                        52.183041
                    ],
                    [
                        4.47053,
                        52.183043
                    ],
                    [
                        4.473639,
                        52.18314
                    ],
                    [
                        4.476856,
                        52.183059
                    ],
                    [
                        4.478239,
                        52.18268
                    ],
                    [
                        4.479073,
                        52.182353
                    ],
                    [
                        4.481073,
                        52.181188
                    ],
                    [
                        4.48126,
                        52.1811
                    ],
                    [
                        4.48165,
                        52.18095
                    ],
                    [
                        4.48414,
                        52.17991
                    ],
                    [
                        4.48449,
                        52.17958
                    ],
                    [
                        4.48439,
                        52.17947
                    ],
                    [
                        4.48442,
                        52.17918
                    ],
                    [
                        4.48508,
                        52.17888
                    ],
                    [
                        4.4854,
                        52.17893
                    ],
                    [
                        4.48568,
                        52.17922
                    ],
                    [
                        4.48598,
                        52.17972
                    ],
                    [
                        4.48659,
                        52.179511
                    ],
                    [
                        4.487239,
                        52.180146
                    ],
                    [
                        4.48732,
                        52.180284
                    ],
                    [
                        4.487255,
                        52.180521
                    ],
                    [
                        4.486563,
                        52.180853
                    ],
                    [
                        4.485775,
                        52.180932
                    ],
                    [
                        4.485303,
                        52.181139
                    ],
                    [
                        4.484965,
                        52.181172
                    ],
                    [
                        4.484943,
                        52.181452
                    ],
                    [
                        4.484085,
                        52.181833
                    ],
                    [
                        4.483291,
                        52.181011
                    ],
                    [
                        4.483012,
                        52.181057
                    ],
                    [
                        4.482712,
                        52.180998
                    ],
                    [
                        4.48242,
                        52.18071
                    ],
                    [
                        4.481974,
                        52.180901
                    ],
                    [
                        4.48172,
                        52.18102
                    ],
                    [
                        4.48139,
                        52.18116
                    ],
                    [
                        4.4791,
                        52.18235
                    ],
                    [
                        4.47824,
                        52.18268
                    ],
                    [
                        4.47876,
                        52.18316
                    ],
                    [
                        4.47838,
                        52.18331
                    ],
                    [
                        4.47839,
                        52.18356
                    ],
                    [
                        4.479311,
                        52.184369
                    ],
                    [
                        4.479573,
                        52.184928
                    ],
                    [
                        4.479525,
                        52.184964
                    ],
                    [
                        4.479839,
                        52.18553
                    ],
                    [
                        4.478621,
                        52.185675
                    ],
                    [
                        4.477377,
                        52.185785
                    ],
                    [
                        4.47755,
                        52.1871
                    ],
                    [
                        4.47774,
                        52.18764
                    ],
                    [
                        4.47873,
                        52.18912
                    ],
                    [
                        4.47882,
                        52.18925
                    ],
                    [
                        4.479304,
                        52.189131
                    ],
                    [
                        4.479375,
                        52.189269
                    ],
                    [
                        4.479637,
                        52.189342
                    ],
                    [
                        4.480161,
                        52.190146
                    ],
                    [
                        4.480459,
                        52.190399
                    ],
                    [
                        4.480264,
                        52.190478
                    ],
                    [
                        4.47957,
                        52.190734
                    ],
                    [
                        4.478331,
                        52.191206
                    ],
                    [
                        4.478496,
                        52.191475
                    ],
                    [
                        4.478097,
                        52.193618
                    ],
                    [
                        4.478467,
                        52.193636
                    ],
                    [
                        4.478321,
                        52.19428
                    ],
                    [
                        4.47797,
                        52.194233
                    ]
                ]
            },
            "properties": {}
        }
    ]
}