{"type":"FeatureCollection","features":[{"type":"Feature","geometry":{"type":"LineString","coordinates":[[4.478104,52.194214],[4.478267,52.194297],[4.477863,52.195299],[4.479022,52.19546],[4.479391,52.195392],[4.480872,52.194768],[4.48191,52.194349],[4.482127,52.194197],[4.482216,52.193976],[4.482289,52.193148],[4.482412,52.193057],[4.482676,52.192981],[4.482887,52.193274],[4.482881,52.193652],[4.48301,52.193795],[4.483788,52.194204],[4.484115,52.194506],[4.484453,52.194684],[4.485626,52.194837],[4.485865,52.19485],[4.486068,52.194448],[4.48654,52.193862],[4.486921,52.193853],[4.4875,52.193192],[4.487755,52.193051],[4.488053,52.192935],[4.488337,52.192909],[4.488573,52.192945],[4.489185,52.193113],[4.489367,52.193116],[4.48948,52.193152],[4.489617,52.193336],[4.489724,52.193422],[4.490016,52.19358],[4.49029,52.193767],[4.491073,52.194126],[4.491277,52.194147],[4.491443,52.194198],[4.491727,52.194476],[4.491969,52.19478],[4.492213,52.195255],[4.492398,52.195747],[4.492393,52.195901],[4.49247,52.196031],[4.492564,52.196118],[4.492613,52.196312],[4.492366,52.196575],[4.492371,52.196746],[4.492242,52.196937],[4.492269,52.197542],[4.49206,52.197904],[4.491921,52.198466],[4.491808,52.198548],[4.491513,52.198611],[4.491218,52.199045],[4.491317,52.200038],[4.491226,52.200102],[4.490268,52.200426],[4.49,52.200475],[4.489885,52.200801],[4.489956,52.201081],[4.490371,52.201534],[4.490533,52.201931],[4.490325,52.202483],[4.489771,52.202837],[4.488916,52.202865],[4.487438,52.202582],[4.486907,52.202893],[4.486468,52.202865],[4.486214,52.202242],[4.486191,52.201336],[4.485735,52.20009],[4.485478,52.199913],[4.485065,52.199173],[4.485043,52.198837],[4.485145,52.198354],[4.485188,52.197867],[4.485054,52.197512],[4.48499,52.197082],[4.485102,52.1967],[4.485725,52.196131],[4.485628,52.19573],[4.485869,52.194846],[4.485625,52.194836],[4.484452,52.194684],[4.48411,52.194504],[4.483788,52.194208],[4.483018,52.193792],[4.482884,52.193659],[4.482881,52.193277],[4.482286,52.192514],[4.482071,52.192587],[4.481006,52.191235],[4.479125,52.191929],[4.478531,52.191929],[4.478498,52.192448],[4.478293,52.192905],[4.478897,52.192943],[4.479062,52.193006],[4.479235,52.19321],[4.479576,52.193541],[4.479191,52.193714],[4.47836,52.193714],[4.478083,52.194039]]},"properties":{},"id":0}]}