{"type":"FeatureCollection","features":[{"type":"Feature","geometry":{"type":"LineString","coordinates":[[4.478126,52.194236],[4.478365,52.194229],[4.478547,52.193666],[4.477529,52.193614],[4.476823,52.193838],[4.476623,52.193808],[4.476273,52.193901],[4.476186,52.193807],[4.475806,52.193303],[4.475444,52.193093],[4.475085,52.193187],[4.474087,52.19342],[4.473903,52.193078],[4.472211,52.193705],[4.471161,52.1941],[4.471533,52.194612],[4.470266,52.194989],[4.469833,52.195229],[4.470714,52.195917],[4.471908,52.196774],[4.472272,52.196629],[4.472138,52.196491],[4.472402,52.196394],[4.472862,52.196849],[4.473013,52.196867],[4.473627,52.196637],[4.473635,52.196566],[4.474082,52.196395],[4.474295,52.196606],[4.474496,52.196522],[4.47478,52.196806],[4.475116,52.197107],[4.475268,52.19713],[4.476726,52.196587],[4.4787,52.196876],[4.480047,52.198228],[4.480277,52.198264],[4.480074,52.198806],[4.480159,52.198905],[4.481581,52.199093],[4.481946,52.199109],[4.48216,52.199208],[4.482246,52.199333],[4.482246,52.199405],[4.482187,52.199734],[4.482037,52.199783],[4.482032,52.199859],[4.482085,52.199914],[4.482359,52.199937],[4.482348,52.200069],[4.482874,52.200174],[4.483356,52.198761],[4.483164,52.198555],[4.483161,52.198544],[4.483295,52.198459],[4.483337,52.198392],[4.483448,52.198037],[4.483511,52.198015],[4.48354,52.197924],[4.48372,52.197913],[4.484191,52.19641],[4.48462,52.1949],[4.484691,52.19473],[4.484742,52.194616],[4.48484,52.194235],[4.48488,52.194041],[4.484848,52.194002],[4.484953,52.193642],[4.485069,52.193255],[4.485215,52.193097],[4.48525,52.193013],[4.485379,52.192619],[4.485874,52.191071],[4.486042,52.19058],[4.486244,52.190067],[4.486375,52.189908],[4.486425,52.189763],[4.486392,52.189619],[4.486286,52.189394],[4.486358,52.189255],[4.486355,52.188947],[4.486236,52.188823],[4.486086,52.188704],[4.485897,52.188593],[4.485808,52.188576],[4.485665,52.188437],[4.485592,52.188393],[4.485498,52.188363],[4.485348,52.188345],[4.485174,52.188408],[4.481164,52.18938],[4.480617,52.189516],[4.480324,52.18959],[4.480115,52.189565],[4.479836,52.189607],[4.479455,52.189741],[4.477835,52.190146],[4.476542,52.190462],[4.476411,52.190467],[4.476347,52.190554],[4.476925,52.190972],[4.477294,52.191494],[4.477795,52.191801],[4.47788,52.191897],[4.477952,52.192048],[4.477912,52.192485],[4.477796,52.192817],[4.477602,52.193557],[4.478575,52.19366],[4.478462,52.194136],[4.47818,52.194153]]},"properties":{}}]}