{
    "type": "FeatureCollection",
    "features": [
        {
            "type": "Feature",
            "geometry": {
                "type": "LineString",
                "coordinates": [
                    [
                        4.474847,
                        52.191604
                    ],
                    [
                        4.474601,
                        52.191675
                    ],
                    [
                        4.47444,
                        52.191772
                    ],
                    [
                        4.473921,
                        52.191886
                    ],
                    [
                        4.473958,
                        52.191906
                    ],
                    [
                        4.474218,
                        52.192324
                    ],
                    [
                        4.474489,
                        52.192769
                    ],
                    [
                        4.474536,
                        52.192815
                    ],
                    [
                        4.474717,
                        52.192737
                    ],
                    [
                        4.474768,
                        52.192778
                    ],
                    [
                        4.475022,
                        52.192821
                    ],
                    [
                        4.475444,
                        52.193093
                    ],
                    [
                        4.475085,
                        52.193187
                    ],
                    [
                        4.474087,
                        52.19342
                    ],
                    [
                        4.473487,
                        52.192473
                    ],
                    [
                        4.473383,
                        52.192433
                    ],
                    [
                        4.473292,
                        52.192292
                    ],
                    [
                        4.473141,
                        52.192264
                    ],
                    [
                        4.473013,
                        52.192012
                    ],
                    [
                        4.472648,
                        52.191955
                    ],
                    [
                        4.471012,
                        52.192357
                    ],
                    [
                        4.47077,
                        52.192351
                    ],
                    [
                        4.469496,
                        52.192665
                    ],
                    [
                        4.469478,
                        52.192713
                    ],
                    [
                        4.468431,
                        52.193068
                    ],
                    [
                        4.467831,
                        52.192992
                    ],
                    [
                        4.467844,
                        52.192926
                    ],
                    [
                        4.467734,
                        52.192893
                    ],
                    [
                        4.467654,
                        52.19292
                    ],
                    [
                        4.467176,
                        52.193397
                    ],
                    [
                        4.466248,
                        52.194432
                    ],
                    [
                        4.467442,
                        52.195154
                    ],
                    [
                        4.46937,
                        52.195366
                    ],
                    [
                        4.469762,
                        52.195172
                    ],
                    [
                        4.470714,
                        52.195917
                    ],
                    [
                        4.471908,
                        52.196774
                    ],
                    [
                        4.472272,
                        52.196629
                    ],
                    [
                        4.472138,
                        52.196491
                    ],
                    [
                        4.472402,
                        52.196394
                    ],
                    [
                        4.472862,
                        52.196849
                    ],
                    [
                        4.473013,
                        52.196867
                    ],
                    [
                        4.473627,
                        52.196637
                    ],
                    [
                        4.473635,
                        52.196566
                    ],
                    [
                        4.474082,
                        52.196395
                    ],
                    [
                        4.474295,
                        52.196606
                    ],
                    [
                        4.474496,
                        52.196522
                    ],
                    [
                        4.47478,
                        52.196806
                    ],
                    [
                        4.475116,
                        52.197107
                    ],
                    [
                        4.475268,
                        52.19713
                    ],
                    [
                        4.476726,
                        52.196587
                    ],
                    [
                        4.4787,
                        52.196876
                    ],
                    [
                        4.480047,
                        52.198228
                    ],
                    [
                        4.480277,
                        52.198264
                    ],
                    [
                        4.480074,
                        52.198806
                    ],
                    [
                        4.480159,
                        52.198905
                    ],
                    [
                        4.481581,
                        52.199093
                    ],
                    [
                        4.481946,
                        52.199109
                    ],
                    [
                        4.48216,
                        52.199208
                    ],
                    [
                        4.482246,
                        52.199333
                    ],
                    [
                        4.482246,
                        52.199405
                    ],
                    [
                        4.482187,
                        52.199734
                    ],
                    [
                        4.482037,
                        52.199783
                    ],
                    [
                        4.482032,
                        52.199859
                    ],
                    [
                        4.482085,
                        52.199914
                    ],
                    [
                        4.482359,
                        52.199937
                    ],
                    [
                        4.482348,
                        52.200069
                    ],
                    [
                        4.482874,
                        52.200174
                    ],
                    [
                        4.483356,
                        52.198761
                    ],
                    [
                        4.483164,
                        52.198555
                    ],
                    [
                        4.483161,
                        52.198544
                    ],
                    [
                        4.483295,
                        52.198459
                    ],
                    [
                        4.483337,
                        52.198392
                    ],
                    [
                        4.483448,
                        52.198037
                    ],
                    [
                        4.483511,
                        52.198015
                    ],
                    [
                        4.48354,
                        52.197924
                    ],
                    [
                        4.48372,
                        52.197913
                    ],
                    [
                        4.484191,
                        52.19641
                    ],
                    [
                        4.48462,
                        52.1949
                    ],
                    [
                        4.484691,
                        52.19473
                    ],
                    [
                        4.484742,
                        52.194616
                    ],
                    [
                        4.48484,
                        52.194235
                    ],
                    [
                        4.48488,
                        52.194041
                    ],
                    [
                        4.484848,
                        52.194002
                    ],
                    [
                        4.484953,
                        52.193642
                    ],
                    [
                        4.485069,
                        52.193255
                    ],
                    [
                        4.485215,
                        52.193097
                    ],
                    [
                        4.48525,
                        52.193013
                    ],
                    [
                        4.485379,
                        52.192619
                    ],
                    [
                        4.485874,
                        52.191071
                    ],
                    [
                        4.486042,
                        52.19058
                    ],
                    [
                        4.486244,
                        52.190067
                    ],
                    [
                        4.486375,
                        52.189908
                    ],
                    [
                        4.486425,
                        52.189763
                    ],
                    [
                        4.486392,
                        52.189619
                    ],
                    [
                        4.486286,
                        52.189394
                    ],
                    [
                        4.486358,
                        52.189255
                    ],
                    [
                        4.486355,
                        52.188947
                    ],
                    [
                        4.486236,
                        52.188823
                    ],
                    [
                        4.486086,
                        52.188704
                    ],
                    [
                        4.485897,
                        52.188593
                    ],
                    [
                        4.485808,
                        52.188576
                    ],
                    [
                        4.485665,
                        52.188437
                    ],
                    [
                        4.485592,
                        52.188393
                    ],
                    [
                        4.485498,
                        52.188363
                    ],
                    [
                        4.485348,
                        52.188345
                    ],
                    [
                        4.485174,
                        52.188408
                    ],
                    [
                        4.481164,
                        52.18938
                    ],
                    [
                        4.480617,
                        52.189516
                    ],
                    [
                        4.480324,
                        52.18959
                    ],
                    [
                        4.480115,
                        52.189565
                    ],
                    [
                        4.479836,
                        52.189607
                    ],
                    [
                        4.479455,
                        52.189741
                    ],
                    [
                        4.477835,
                        52.190146
                    ],
                    [
                        4.476542,
                        52.190462
                    ],
                    [
                        4.476411,
                        52.190467
                    ],
                    [
                        4.476347,
                        52.190554
                    ],
                    [
                        4.474393,
                        52.191059
                    ],
                    [
                        4.474643,
                        52.191453
                    ]
                ]
            },
            "properties": {}
        },
        {
            "type": "Feature",
            "properties": {},
            "geometry": {
                "type": "LineString",
                "coordinates": [
                    [
                        4.476614,
                        52.190737
                    ],
                    [
                        4.476992,
                        52.191022
                    ],
                    [
                        4.47719,
                        52.191334
                    ],
                    [
                        4.477304,
                        52.191348
                    ],
                    [
                        4.477919,
                        52.191083
                    ],
                    [
                        4.47823,
                        52.191199
                    ],
                    [
                        4.479134,
                        52.190906
                    ],
                    [
                        4.479536,
                        52.190706
                    ],
                    [
                        4.481009,
                        52.190203
                    ],
                    [
                        4.481116,
                        52.190054
                    ],
                    [
                        4.482711,
                        52.189672
                    ],
                    [
                        4.483851,
                        52.189369
                    ],
                    [
                        4.484611,
                        52.189579
                    ],
                    [
                        4.485074,
                        52.18895
                    ],
                    [
                        4.485347,
                        52.188848
                    ],
                    [
                        4.485492,
                        52.188657
                    ]
                ]
            }
        }
    ]
}