{"type":"FeatureCollection","features":[{"type":"Feature","geometry":{"type":"LineString","coordinates":[[4.478029,52.194103],[4.478293,52.19419],[4.478505,52.193693],[4.479069,52.193768],[4.482084,52.192644],[4.480432,52.190404],[4.480169,52.190131],[4.479552,52.189207],[4.479624,52.189112],[4.48033,52.189018],[4.480389,52.188982],[4.480399,52.188916],[4.480839,52.188733],[4.48125,52.188623],[4.481451,52.188643],[4.482288,52.188424],[4.482585,52.188439],[4.483801,52.188132],[4.483916,52.188081],[4.484104,52.187893],[4.48405,52.187804],[4.484396,52.18773],[4.483742,52.186655],[4.483264,52.186086],[4.481161,52.184445],[4.480298,52.184747],[4.480147,52.184244],[4.479257,52.184356],[4.478576,52.184639],[4.478023,52.184573],[4.477825,52.184369],[4.478023,52.183935],[4.477927,52.183329],[4.477088,52.183492],[4.477122,52.183844],[4.474251,52.183952],[4.474301,52.184373],[4.473999,52.184392],[4.473929,52.184581],[4.473682,52.184766],[4.473705,52.185193],[4.47362,52.185354],[4.473697,52.185468],[4.473651,52.185795],[4.473489,52.185969],[4.473399,52.185969],[4.473406,52.18602],[4.472734,52.186013],[4.472786,52.186184],[4.472835,52.186342],[4.47276,52.186514],[4.472551,52.186681],[4.472387,52.186741],[4.472147,52.186768],[4.471849,52.186752],[4.471684,52.186693],[4.471682,52.186865],[4.471438,52.18685],[4.471431,52.187442],[4.47068,52.187469],[4.470695,52.188904],[4.470727,52.189595],[4.47076,52.190536],[4.467579,52.190575],[4.467556,52.190644],[4.467465,52.190613],[4.467353,52.190723],[4.467954,52.191708],[4.468018,52.191912],[4.467949,52.192084],[4.467973,52.192195],[4.467906,52.192622],[4.467804,52.192905],[4.467831,52.192999],[4.467711,52.193147],[4.467504,52.193385],[4.467245,52.193301],[4.466689,52.19394],[4.46677,52.193979],[4.466848,52.194226],[4.466968,52.194336],[4.46723,52.194457],[4.467479,52.194548],[4.467731,52.194616],[4.468537,52.194823],[4.469293,52.195073],[4.469571,52.19526],[4.469787,52.195189],[4.470754,52.195922],[4.472197,52.195438],[4.472655,52.195287],[4.472911,52.195255],[4.474143,52.194831],[4.476337,52.194071],[4.476216,52.193872],[4.47626,52.193839],[4.476535,52.193752],[4.477159,52.194529],[4.478117,52.194617],[4.478053,52.194304]]},"properties":{}}]}